Skip Page Navigation
NASA Logo - Jet Propulsion Laboratory				+ View the NASA Portal
+ Center for Near-Earth Object Studies			
JPL Home	Earth	Solar System	Stars & Galaxies	Technology

JPL Solar System Dynamics
BODIES		ORBITS		EPHEMERIDES		TOOLS		PHYSICAL DATA		DISCOVERY		FAQ		SITE MAP

IMPORTANT: The SSD Announcement email list is now available. Major changes are coming in the near future, including possible hostname and/or URL changes. To be notified of such changes, subscribe to this email list.

Please visit this page for more details.


Don't show this message again
HORIZONS Web-Interface
This tool provides a web-based limited interface to JPL's HORIZONS system which can be used to generate ephemerides for solar-system bodies. Full access to HORIZONS features is available via the primary telnet interface. HORIZONS system news shows recent changes and improvements. A web-interface tutorial is available to assist new users.
Current Settings
Ephemeris Type [change] : 	ELEMENTS
Target Body [change] : 	Europa (JII) [502]
Center [change] : 	Jupiter System Barycenter [500@5]
Time Span [change] : 	Start=JD 2458850.0, Stop=JD 2464329.0, Intervals=500
Table Settings [change] : 	CSV format=YES
Display/Output [change] : 	default (formatted HTML)
Object Data Page
 Revised: Jun 17, 2016           Europa / (Jupiter)                         502

 SATELLITE PHYSICAL PROPERTIES:
  Radius (km)             = 1565   +- 8     Density (g cm^-3)   =  2.99 +- 0.05
  Mass (10^20 kg )        =  479.7 +- 1.5   Geometric Albedo    =  0.6  

 SATELLITE ORBITAL DATA:
  Semi-major axis, a (km) = 671.079 (10^3)  Orbital period      = 3.551810 d
  Eccentricity, e         = 0.0101          Rotational period   = Synchronous
  Inclination, i  (deg)   = 0.464
Results
*******************************************************************************
Ephemeris / WWW_USER Fri May 15 20:07:23 2020 Pasadena, USA      / Horizons    
*******************************************************************************
Target body name: Europa (502)                    {source: jup310}
Center body name: Jupiter Barycenter (5)          {source: DE431mx}
Center-site name: BODY CENTER
*******************************************************************************
Start time      : A.D. 2020-Jan-01 12:00:00.0000 TDB
Stop  time      : A.D. 2035-Jan-01 12:00:00.0000 TDB
Step-size       : 500 steps
*******************************************************************************
Center geodetic : 0.00000000,0.00000000,0.0000000 {E-lon(deg),Lat(deg),Alt(km)}
Center cylindric: 0.00000000,0.00000000,0.0000000 {E-lon(deg),Dxy(km),Dz(km)}
Center radii    : (undefined)                                                  
Keplerian GM    : 2.8251316094046093E-07 au^3/d^2
Output units    : AU-D, deg, Julian Day Number (Tp)                            
Output type     : GEOMETRIC osculating elements
Output format   : 10
Reference frame : ICRF/J2000.0                                                 
Coordinate systm: Ecliptic and Mean Equinox of Reference Epoch                 
*******************************************************************************
            JDTDB,            Calendar Date (TDB),                     EC,                     QR,                     IN,                     OM,                      W,                     Tp,                      N,                     MA,                     TA,                      A,                     AD,                     PR,
**************************************************************************************************************************************************************************************************************************************************************************************************************************************************
$$SOE
2460427.952000000, A.D. 2024-Apr-27 10:50:52.8000,  9.147680986901356E-03,  4.446040262593187E-03,  2.308825827024108E+00,  3.264249152735852E+02,  1.700118871555950E+02,  2.460429302904518E+06,  1.013200237413184E+02,  2.231263221362867E+02,  2.224156818600355E+02,  4.487086700287989E-03,  4.528133137982790E-03,  3.553098259423242E+00,
2460438.910000000, A.D. 2024-May-08 09:50:24.0000,  9.246755517611453E-03,  4.444255819217434E-03,  2.305827280654751E+00,  3.264051174880049E+02,  1.617958062373318E+02,  2.460439874569033E+06,  1.013658472685071E+02,  2.622256427464163E+02,  2.611774794407253E+02,  4.485734307677488E-03,  4.527212796137544E-03,  3.551492042940253E+00,
2460449.868000000, A.D. 2024-May-19 08:49:55.2000,  9.318071720031556E-03,  4.444271370579054E-03,  2.302952851139389E+00,  3.263883257390544E+02,  1.547898255060880E+02,  2.460450458687980E+06,  1.013543707311395E+02,  3.001311915234559E+02,  2.992023091074440E+02,  4.486072919786921E-03,  4.527874468994788E-03,  3.551894184760557E+00,
2460460.826000000, A.D. 2024-May-30 07:49:26.4000,  9.570084497697275E-03,  4.444372856219809E-03,  2.300001387631541E+00,  3.263766508325766E+02,  1.465486973388298E+02,  2.460461030829981E+06,  1.013122286854539E+02,  3.392482181776908E+02,  3.388552619335787E+02,  4.487316857716093E-03,  4.530260859212378E-03,  3.553371638064534E+00,
2460471.784000000, A.D. 2024-Jun-10 06:48:57.6000,  9.315634022868424E-03,  4.443105335788419E-03,  2.297276408314481E+00,  3.263671823292972E+02,  1.373838412730708E+02,  2.460471593889710E+06,  1.013946462792484E+02,  1.927616560488521E+01,  1.963248077180956E+01,  4.484884881983675E-03,  4.526664428178931E-03,  3.550483316530669E+00,
2460482.742000000, A.D. 2024-Jun-21 05:48:28.8000,  9.468835746807350E-03,  4.446100359372158E-03,  2.294431897552818E+00,  3.263553682820107E+02,  1.336891613987205E+02,  2.460482210028574E+06,  1.012687147400571E+02,  5.387206258977867E+01,  5.475458125622806E+01,  4.488602196301697E-03,  4.531104033231237E-03,  3.554898479002823E+00,
2460493.700000000, A.D. 2024-Jul-02 04:48:00.0000,  9.567877118008536E-03,  4.440664684485344E-03,  2.291817656778339E+00,  3.263400702261500E+02,  1.207050505421911E+02,  2.460492736708904E+06,  1.014394952746841E+02,  9.771576257694566E+01,  9.880042742012587E+01,  4.483562863009485E-03,  4.526461041533627E-03,  3.548913557043732E+00,
2460504.658000000, A.D. 2024-Jul-13 03:47:31.2000,  9.060629968819884E-03,  4.447779987491206E-03,  2.289092826968786E+00,  3.263276541014739E+02,  1.170054575736852E+02,  2.460503351513491E+06,  1.012739280102229E+02,  1.323130207562959E+02,  1.330749663193417E+02,  4.488448155361165E-03,  4.529116323231123E-03,  3.554715483768541E+00,
2460515.616000000, A.D. 2024-Jul-24 02:47:02.4000,  9.649408285556974E-03,  4.440655568097828E-03,  2.286838817055398E+00,  3.263108178925595E+02,  1.059272631694261E+02,  2.460513897764636E+06,  1.014272823036542E+02,  1.742759433342968E+02,  1.743849186242571E+02,  4.483922769622825E-03,  4.527189971147821E-03,  3.549340885642857E+00,
2460526.574000000, A.D. 2024-Aug-04 01:46:33.6000,  9.328120986350396E-03,  4.444791583795469E-03,  2.284335793641130E+00,  3.262956464923808E+02,  9.800252309754420E+01,  2.460528023621648E+06,  1.013350357549435E+02,  2.131025384798002E+02,  2.125244163164282E+02,  4.486643537536235E-03,  4.528495491277000E-03,  3.552571894981918E+00,
2460537.532000000, A.D. 2024-Aug-15 00:46:04.8000,  9.478448441314256E-03,  4.444087761817965E-03,  2.281873729155792E+00,  3.262784511966020E+02,  8.839123873957126E+01,  2.460538582055659E+06,  1.013360398385926E+02,  2.535915179544856E+02,  2.525531371265628E+02,  4.486613900348502E-03,  4.529140038879039E-03,  3.552536694481111E+00,
2460548.490000000, A.D. 2024-Aug-25 23:45:36.0000,  9.405480142909352E-03,  4.442525374960227E-03,  2.279360338154135E+00,  3.262593312651648E+02,  8.326871555167446E+01,  2.460549184285344E+06,  1.014007064064469E+02,  2.895989756973310E+02,  2.885796648308601E+02,  4.484706189976837E-03,  4.526887004993447E-03,  3.550271124907190E+00,
2460559.448000000, A.D. 2024-Sep-05 22:45:07.2000,  9.924651503523145E-03,  4.444264057138462E-03,  2.276748652879482E+00,  3.262381366813452E+02,  7.303490585859751E+01,  2.460559737298554E+06,  1.012615482770773E+02,  3.307051804558266E+02,  3.301426298613391E+02,  4.488813971469442E-03,  4.533363885800421E-03,  3.555150065599911E+00,
2460570.406000000, A.D. 2024-Sep-16 21:44:38.4000,  9.330366821634874E-03,  4.441940656065940E-03,  2.274269672742063E+00,  3.262092761118182E+02,  6.546494892928419E+01,  2.460570315781056E+06,  1.014322648144635E+02,  9.151111823081886E+00,  9.323132734880438E+00,  4.483775930241106E-03,  4.525611204416273E-03,  3.549166536491126E+00,
2460581.364000000, A.D. 2024-Sep-27 20:44:09.6000,  9.875746350143171E-03,  4.445236488610487E-03,  2.271576939969931E+00,  3.261876804982896E+02,  6.140465382491251E+01,  2.460580928399563E+06,  1.012358228296624E+02,  4.409836863536650E+01,  4.489291016127271E+01,  4.489574386471377E-03,  4.533912284332268E-03,  3.556053479268199E+00,
2460592.322000000, A.D. 2024-Oct-08 19:43:40.8000,  9.566865119041621E-03,  4.440459762027000E-03,  2.268890226372855E+00,  3.261605576345453E+02,  4.828313560688515E+01,  2.460591453711877E+06,  1.014466728250015E+02,  8.808494114734465E+01,  8.918098200349883E+01,  4.483351379960350E-03,  4.526242997893699E-03,  3.548662464475406E+00,
2460603.280000000, A.D. 2024-Oct-19 18:43:12.0000,  9.348420676512884E-03,  4.446276382518680E-03,  2.266100500138185E+00,  3.261433458376273E+02,  4.533599074252524E+01,  2.460602076306692E+06,  1.012811668633768E+02,  1.219114627830211E+02,  1.228151890968473E+02,  4.488234284706868E-03,  4.530192186895057E-03,  3.554461418139288E+00,
2460614.238000000, A.D. 2024-Oct-30 17:42:43.2000,  9.651999464186205E-03,  4.441532482587538E-03,  2.263047411475302E+00,  3.261136800985371E+02,  3.368528242358691E+01,  2.460612616184675E+06,  1.013968478779057E+02,  1.644469617546785E+02,  1.647401137332309E+02,  4.484819962462194E-03,  4.528107442336850E-03,  3.550406225975431E+00,
